{
    "links": {
        "self": "http://www.neowsapp.com/rest/v1/neo/3710223?api_key=iIulBulltgU6a56xZRHN4H3l9WmuAYTsLGpBGhQ2"
    },
    "id": "3710223",
    "neo_reference_id": "3710223",
    "name": "(2015 CM13)",
    "designation": "2015 CM13",
    "nasa_jpl_url": "http://ssd.jpl.nasa.gov/sbdb.cgi?sstr=3710223",
    "absolute_magnitude_h": 23.5,
    "estimated_diameter": {
        "kilometers": {
            "estimated_diameter_min": 0.0530340723,
            "estimated_diameter_max": 0.1185877909
        },
        "meters": {
            "estimated_diameter_min": 53.0340723319,
            "estimated_diameter_max": 118.5877908577
        },
        "miles": {
            "estimated_diameter_min": 0.0329538346,
            "estimated_diameter_max": 0.0736870142
        },
        "feet": {
            "estimated_diameter_min": 173.9963058693,
            "estimated_diameter_max": 389.0675677576
        }
    },
    "is_potentially_hazardous_asteroid": false,
    "close_approach_data": [
        {
            "close_approach_date": "2015-02-07",
            "close_approach_date_full": "2015-Feb-07 01:59",
            "epoch_date_close_approach": 1423274340000,
            "relative_velocity": {
                "kilometers_per_second": "12.4487869619",
                "kilometers_per_hour": "44815.6330628717",
                "miles_per_hour": "27846.6915550938"
            },
            "miss_distance": {
                "astronomical": "0.0203311717",
                "lunar": "7.9088257913",
                "kilometers": "3041499.980924279",
                "miles": "1889900.4522978902"
            },
            "orbiting_body": "Earth"
        }
    ],
    "orbital_data": {
        "orbit_id": "8",
        "orbit_determination_date": "2018-02-10 07:06:12",
        "first_observation_date": "2015-02-13",
        "last_observation_date": "2015-03-01",
        "data_arc_in_days": 16,
        "observations_used": 40,
        "orbit_uncertainty": "7",
        "minimum_orbit_intersection": ".00443894",
        "jupiter_tisserand_invariant": "3.442",
        "epoch_osculation": "2459000.5",
        "eccentricity": ".5755547106278281",
        "semi_major_axis": "2.159748909791287",
        "inclination": "11.31240305728079",
        "ascending_node_longitude": "134.4129929697584",
        "orbital_period": "1159.319983689854",
        "perihelion_distance": ".9166952509875955",
        "perihelion_argument": "325.6204887009412",
        "aphelion_distance": "3.402802568594979",
        "perihelion_time": "2459354.167270846389",
        "mean_anomaly": "250.176811151423",
        "mean_motion": ".3105268649421545",
        "equinox": "J2000",
        "orbit_class": {
            "orbit_class_type": "APO",
            "orbit_class_description": "Near-Earth asteroid orbits which cross the Earth’s orbit similar to that of 1862 Apollo",
            "orbit_class_range": "a (semi-major axis) > 1.0 AU; q (perihelion) < 1.017 AU"
        }
    },
    "is_sentry_object": false
}